{
  "type": "FeatureCollection",
  "features": [
    {
      "type": "Feature",
      "properties": {
        "OBJECT_NAME": "SENTINEL-2B",
        "OBJECT_ID": "2017-013A",
        "EPOCH": "2025-11-27T16:03:17.874432",
        "MEAN_MOTION": 14.30826294,
        "ECCENTRICITY": 0.00011314,
        "INCLINATION": 98.5643,
        "RA_OF_ASC_NODE": 44.3254,
        "ARG_OF_PERICENTER": 103.5348,
        "MEAN_ANOMALY": 256.5961,
        "EPHEMERIS_TYPE": 0,
        "CLASSIFICATION_TYPE": "U",
        "NORAD_CAT_ID": 42063,
        "ELEMENT_SET_NO": 999,
        "REV_AT_EPOCH": 45582,
        "BSTAR": 8.5446015e-05,
        "MEAN_MOTION_DOT": 1.8e-06,
        "MEAN_MOTION_DDOT": 0,
        "norad_id": 42063,
        "name": "SENTINEL-2B",
        "group": "resource",
        "longitude_deg": NaN,
        "latitude_deg": NaN,
        "alt_km": NaN,
        "orbit_class": "HEO",
        "timestamp": "2025-11-30T04:58:49.604625+00:00"
      },
      "geometry": {
        "type": "Point",
        "coordinates": [
          NaN,
          NaN
        ]
      }
    },
    {
      "type": "Feature",
      "properties": {
        "OBJECT_NAME": "CARTOSAT-2E",
        "OBJECT_ID": "2017-036C",
        "EPOCH": "2025-11-29T19:20:44.217312",
        "MEAN_MOTION": 15.1929723,
        "ECCENTRICITY": 0.0002762,
        "INCLINATION": 97.4578,
        "RA_OF_ASC_NODE": 31.56,
        "ARG_OF_PERICENTER": 290.2247,
        "MEAN_ANOMALY": 69.8691,
        "EPHEMERIS_TYPE": 0,
        "CLASSIFICATION_TYPE": "U",
        "NORAD_CAT_ID": 42767,
        "ELEMENT_SET_NO": 999,
        "REV_AT_EPOCH": 46787,
        "BSTAR": 0.00024378,
        "MEAN_MOTION_DOT": 5.077e-05,
        "MEAN_MOTION_DDOT": 0,
        "norad_id": 42767,
        "name": "CARTOSAT-2E",
        "group": "resource",
        "longitude_deg": NaN,
        "latitude_deg": NaN,
        "alt_km": NaN,
        "orbit_class": "HEO",
        "timestamp": "2025-11-30T04:58:49.604745+00:00"
      },
      "geometry": {
        "type": "Point",
        "coordinates": [
          NaN,
          NaN
        ]
      }
    },
    {
      "type": "Feature",
      "properties": {
        "OBJECT_NAME": "FORMOSAT-5",
        "OBJECT_ID": "2017-049A",
        "EPOCH": "2025-11-29T19:24:42.607008",
        "MEAN_MOTION": 14.50992688,
        "ECCENTRICITY": 0.001053,
        "INCLINATION": 98.2466,
        "RA_OF_ASC_NODE": 48.3836,
        "ARG_OF_PERICENTER": 338.3034,
        "MEAN_ANOMALY": 21.7714,
        "EPHEMERIS_TYPE": 0,
        "CLASSIFICATION_TYPE": "U",
        "NORAD_CAT_ID": 42920,
        "ELEMENT_SET_NO": 999,
        "REV_AT_EPOCH": 43776,
        "BSTAR": 6.7118e-05,
        "MEAN_MOTION_DOT": 2.22e-06,
        "MEAN_MOTION_DDOT": 0,
        "norad_id": 42920,
        "name": "FORMOSAT-5",
        "group": "resource",
        "longitude_deg": NaN,
        "latitude_deg": NaN,
        "alt_km": NaN,
        "orbit_class": "HEO",
        "timestamp": "2025-11-30T04:58:49.604961+00:00"
      },
      "geometry": {
        "type": "Point",
        "coordinates": [
          NaN,
          NaN
        ]
      }
    },
    {
      "type": "Feature",
      "properties": {
        "OBJECT_NAME": "SENTINEL-5P",
        "OBJECT_ID": "2017-064A",
        "EPOCH": "2025-11-29T19:08:12.283296",
        "MEAN_MOTION": 14.19512151,
        "ECCENTRICITY": 9.65e-05,
        "INCLINATION": 98.7765,
        "RA_OF_ASC_NODE": 272.4975,
        "ARG_OF_PERICENTER": 84.4147,
        "MEAN_ANOMALY": 275.7139,
        "EPHEMERIS_TYPE": 0,
        "CLASSIFICATION_TYPE": "U",
        "NORAD_CAT_ID": 42969,
        "ELEMENT_SET_NO": 999,
        "REV_AT_EPOCH": 42127,
        "BSTAR": 6.553e-05,
        "MEAN_MOTION_DOT": 9.4e-07,
        "MEAN_MOTION_DDOT": 0,
        "norad_id": 42969,
        "name": "SENTINEL-5P",
        "group": "resource",
        "longitude_deg": NaN,
        "latitude_deg": NaN,
        "alt_km": NaN,
        "orbit_class": "HEO",
        "timestamp": "2025-11-30T04:58:49.605122+00:00"
      },
      "geometry": {
        "type": "Point",
        "coordinates": [
          NaN,
          NaN
        ]
      }
    },
    {
      "type": "Feature",
      "properties": {
        "OBJECT_NAME": "SKYSAT-C11",
        "OBJECT_ID": "2017-068A",
        "EPOCH": "2025-11-29T14:43:45.377760",
        "MEAN_MOTION": 15.46643556,
        "ECCENTRICITY": 8.06e-05,
        "INCLINATION": 97.4139,
        "RA_OF_ASC_NODE": 110.7895,
        "ARG_OF_PERICENTER": 120.2229,
        "MEAN_ANOMALY": 239.91,
        "EPHEMERIS_TYPE": 0,
        "CLASSIFICATION_TYPE": "U",
        "NORAD_CAT_ID": 42987,
        "ELEMENT_SET_NO": 999,
        "REV_AT_EPOCH": 45228,
        "BSTAR": 0.000448,
        "MEAN_MOTION_DOT": 0.00022282,
        "MEAN_MOTION_DDOT": 0,
        "norad_id": 42987,
        "name": "SKYSAT-C11",
        "group": "resource",
        "longitude_deg": NaN,
        "latitude_deg": NaN,
        "alt_km": NaN,
        "orbit_class": "HEO",
        "timestamp": "2025-11-30T04:58:49.605142+00:00"
      },
      "geometry": {
        "type": "Point",
        "coordinates": [
          NaN,
          NaN
        ]
      }
    },
    {
      "type": "Feature",
      "properties": {
        "OBJECT_NAME": "SKYSAT-C10",
        "OBJECT_ID": "2017-068B",
        "EPOCH": "2025-11-29T19:06:47.924064",
        "MEAN_MOTION": 15.31882627,
        "ECCENTRICITY": 0.0005362,
        "INCLINATION": 97.4248,
        "RA_OF_ASC_NODE": 104.6148,
        "ARG_OF_PERICENTER": 130.8833,
        "MEAN_ANOMALY": 229.2874,
        "EPHEMERIS_TYPE": 0,
        "CLASSIFICATION_TYPE": "U",
        "NORAD_CAT_ID": 42988,
        "ELEMENT_SET_NO": 999,
        "REV_AT_EPOCH": 45181,
        "BSTAR": 0.00036606,
        "MEAN_MOTION_DOT": 0.00011199,
        "MEAN_MOTION_DDOT": 0,
        "norad_id": 42988,
        "name": "SKYSAT-C10",
        "group": "resource",
        "longitude_deg": NaN,
        "latitude_deg": NaN,
        "alt_km": NaN,
        "orbit_class": "HEO",
        "timestamp": "2025-11-30T04:58:49.605149+00:00"
      },
      "geometry": {
        "type": "Point",
        "coordinates": [
          NaN,
          NaN
        ]
      }
    },
    {
      "type": "Feature",
      "properties": {
        "OBJECT_NAME": "SKYSAT-C9",
        "OBJECT_ID": "2017-068C",
        "EPOCH": "2025-11-29T18:59:35.650176",
        "MEAN_MOTION": 15.35543882,
        "ECCENTRICITY": 0.0010585,
        "INCLINATION": 97.4176,
        "RA_OF_ASC_NODE": 103.9488,
        "ARG_OF_PERICENTER": 129.9035,
        "MEAN_ANOMALY": 230.3141,
        "EPHEMERIS_TYPE": 0,
        "CLASSIFICATION_TYPE": "U",
        "NORAD_CAT_ID": 42989,
        "ELEMENT_SET_NO": 999,
        "REV_AT_EPOCH": 45209,
        "BSTAR": 0.00039216,
        "MEAN_MOTION_DOT": 0.00013498,
        "MEAN_MOTION_DDOT": 0,
        "norad_id": 42989,
        "name": "SKYSAT-C9",
        "group": "resource",
        "longitude_deg": NaN,
        "latitude_deg": NaN,
        "alt_km": NaN,
        "orbit_class": "HEO",
        "timestamp": "2025-11-30T04:58:49.605155+00:00"
      },
      "geometry": {
        "type": "Point",
        "coordinates": [
          NaN,
          NaN
        ]
      }
    },
    {
      "type": "Feature",
      "properties": {
        "OBJECT_NAME": "SKYSAT-C8",
        "OBJECT_ID": "2017-068D",
        "EPOCH": "2025-11-29T20:03:36.811872",
        "MEAN_MOTION": 15.3248791,
        "ECCENTRICITY": 0.0002372,
        "INCLINATION": 97.4269,
        "RA_OF_ASC_NODE": 103.7847,
        "ARG_OF_PERICENTER": 30.2203,
        "MEAN_ANOMALY": 329.9175,
        "EPHEMERIS_TYPE": 0,
        "CLASSIFICATION_TYPE": "U",
        "NORAD_CAT_ID": 42990,
        "ELEMENT_SET_NO": 999,
        "REV_AT_EPOCH": 45173,
        "BSTAR": 0.00036879,
        "MEAN_MOTION_DOT": 0.00011496,
        "MEAN_MOTION_DDOT": 0,
        "norad_id": 42990,
        "name": "SKYSAT-C8",
        "group": "resource",
        "longitude_deg": NaN,
        "latitude_deg": NaN,
        "alt_km": NaN,
        "orbit_class": "HEO",
        "timestamp": "2025-11-30T04:58:49.605161+00:00"
      },
      "geometry": {
        "type": "Point",
        "coordinates": [
          NaN,
          NaN
        ]
      }
    }
  ]
}