SENTINEL-2B             
1 42063U 17013A   25331.66895688  .00000180  00000+0  85446-4 0  9996
2 42063  98.5643  44.3254 0001131 103.5348 256.5961 14.30826294455821
CARTOSAT-2E             
1 42767U 17036C   25333.80606733  .00005077  00000+0  24378-3 0  9997
2 42767  97.4578  31.5600 0002762 290.2247  69.8691 15.19297230467876
FORMOSAT-5              
1 42920U 17049A   25333.80882647  .00000222  00000+0  67118-4 0  9999
2 42920  98.2466  48.3836 0010530 338.3034  21.7714 14.50992688437760
SENTINEL-5P             
1 42969U 17064A   25333.79736439  .00000094  00000+0  65530-4 0  9997
2 42969  98.7765 272.4975 0000965  84.4147 275.7139 14.19512151421278
SKYSAT-C11              
1 42987U 17068A   25333.61371965  .00022282  00000+0  44800-3 0  9990
2 42987  97.4139 110.7895 0000806 120.2229 239.9100 15.46643556452288
SKYSAT-C10              
1 42988U 17068B   25333.79638801  .00011199  00000+0  36606-3 0  9995
2 42988  97.4248 104.6148 0005362 130.8833 229.2874 15.31882627451819
SKYSAT-C9               
1 42989U 17068C   25333.79138484  .00013498  00000+0  39216-3 0  9992
2 42989  97.4176 103.9488 0010585 129.9035 230.3141 15.35543882452097
SKYSAT-C8               
1 42990U 17068D   25333.83584273  .00011496  00000+0  36879-3 0  9998
2 42990  97.4269 103.7847 0002372  30.2203 329.9175 15.32487910451733
